C/2020 K8 (Catalina-ATLAS),h,09/14.5161/2020,31.4136,181.5193,260.0550,1.000318,0.474611,2000,15.0,3.2
# From MPEC 2020-UR0
P/2020 K9 (Lemmon-PANSTARRS),e,23.2072,166.2391,196.8616,4.201709,0.1144367,0.32182476,349.0427,11/08.0/2020,2000,g 12.5,4.0
# From MPEC 2020-K19
P/2020 M1 (PANSTARRS),e,8.6357,142.9309,67.9617,5.096538,0.0856626,0.47778310,27.6261,11/08.0/2020,2000,g 14.5,4.0
# From MPEC 2020-N01
P/2020 M2 (Lemmon),e,10.9284,8.2097,14.4026,3.826163,0.1316918,0.40490717,18.6623,11/08.0/2020,2000,g 12.0,4.0
# From MPEC 2020-UR0
C/2020 M3 (ATLAS),e,23.4735,71.2502,328.4458,26.81933,0.0070963,0.95271151,0.0949,11/08.0/2020,2000,g 14.5,4.0
# From MPEC 2020-K19
A/2020 M4,e,160.1255,348.6316,104.6350,5582,0.0000024,0.99893359,0.0000,11/23.7315/2020,2000,g 14.5,2.0
# From MPEC 2020-UR0
C/2020 M5 (ATLAS),e,93.2224,352.0979,126.3367,8530,0.0000013,0.99964779,0.0000,08/19.8877/2021,2000,g  9.0,4.0
# From MPEC 2020-UR0
C/2020 N1 (PANSTARRS),h,03/12.2398/2021,29.7038,279.9843,186.7707,1.000400,1.320760,2000,12.5,4.0
# From MPEC 2020-UR0
C/2020 N2 (ATLAS),e,161.0337,257.0717,331.2016,108.3432,0.0008740,0.98344198,0.0000,08/23.6705/2020,2000,g 16.0,3.2
# From MPEC 2020-SI8
P/2020 O1 (Lemmon-PANSTARRS),e,5.2247,175.9778,104.7161,2.645639,0.2290383,0.11967971,43.2084,11/08.0/2020,2000,g 15.5,4.0
# From MPEC 2020-UR0
C/2020 O2 (Amaral),h,08/28.1716/2021,71.7525,256.7524,10.2308,1.001378,4.864186,2000,8.0,3.2
# From MPEC 2020-SI8
P/2020 O3 (PANSTARRS),e,8.4415,266.8795,81.3842,4.659127,0.0980048,0.10568720,351.9513,11/08.0/2020,2000,g 12.0,4.0
# From MPEC 2020-UR0
C/2020 P1 (NEOWISE),h,10/20.1796/2020,45.0518,53.5374,8.8972,1.000252,0.342199,2000,14.0,3.2
# From MPEC 2020-UR0
C/2020 P3 (ATLAS),e,61.8881,19.4999,82.2469,6212,0.0000020,0.99890340,0.0000,04/20.9378/2021,2000,g  6.0,4.0
# From MPEC 2020-QN1
C/2020 P4-A (SOHO),h,08/08.2179/2020,26.3317,175.2060,177.4772,1.002092,0.090758,2000,5.3,6.0
# From MPEC 2020-QN1
C/2020 P4-B (SOHO),h,08/08.1271/2020,27.3017,171.4987,173.4045,1.000486,0.098303,2000,0.0,6.0
# From MPEC 2020-QN1
C/2020 P4-C (SOHO),h,08/06.8014/2020,37.4581,164.0405,116.7347,1.012861,0.086551,2000,-1.6,6.0
# From MPEC 2020-SI8
C/2020 Q1 (Borisov),e,142.9240,52.3603,9.8047,52.67660,0.0025780,0.97504633,0.0000,08/14.5707/2020,2000,g 14.0,4.0
# From MPEC 2020-UR0
C/2020 R2 (PANSTARRS),e,53.2199,195.0941,211.6774,392.7511,0.0001266,0.98805006,0.0000,02/24.1808/2022,2000,g  9.0,4.0
# From MPEC 2020-UR0
C/2020 R4 (ATLAS),e,164.4630,323.2728,46.7134,97.13333,0.0010296,0.98941048,0.0000,03/01.9400/2021,2000,g 13.5,4.0
# From MPEC 2020-UR0
P/2020 R5 (PANSTARRS),e,11.4543,272.9703,82.3306,4.979026,0.0887130,0.31449253,14.5262,11/08.0/2020,2000,g  9.5,6.0
# From MPEC 2020-UR0
C/2020 R6 (Rankin),e,82.8220,12.1751,272.0012,437.5964,0.0001077,0.99284906,0.0000,09/10.0609/2019,2000,g 11.0,4.0
# From MPEC 2020-UR0
C/2020 R7 (ATLAS),h,09/16.2593/2022,114.8929,268.2896,347.7133,1.000289,2.962403,2000,7.0,3.2
# From MPEC 2020-UR0
P/2020 S1 (PANSTARRS),e,13.7340,129.4591,254.8731,5.980180,0.0673958,0.50715495,355.2879,11/08.0/2020,2000,g 14.0,4.0
# From MPEC 2020-UR0
C/2020 S2 (PANSTARRS),e,22.3961,197.6868,202.2607,10.16957,0.0303914,0.82732450,358.6648,11/08.0/2020,2000,g 17.0,4.0
# From MPEC 2020-UR0
C/2020 S3 (Erasmus),e,19.8620,223.0047,349.8585,209.6649,0.0003247,0.99809856,0.0000,12/12.6695/2020,2000,g 13.5,3.2
# From MPEC 2020-UR0
C/2020 S4 (PANSTARRS),h,02/07.9761/2023,20.5770,117.6930,21.1181,1.002725,3.359412,2000,8.5,3.2
# From MPEC 2020-UR0
P/2020 S5 (PANSTARRS),e,12.3540,315.9982,53.0277,4.047958,0.1210180,0.33824570,11.0830,11/08.0/2020,2000,g 14.5,4.0
# From MPEC 2020-UR0
P/2020 S6 (Leonard),e,15.4601,242.5709,176.6537,3.598823,0.1443655,0.47904305,357.7462,11/08.0/2020,2000,g 16.0,4.0
# From MPEC 2020-UR0
P/2020 S7 (PANSTARRS),e,16.0922,328.0189,40.4038,5.023161,0.0875464,0.41052761,359.1186,11/08.0/2020,2000,g 14.5,4.0
# From MPEC 2020-UR0
C/2020 S8 (Lemmon),e,108.5175,24.0517,160.3287,269.0527,0.0002233,0.99121381,0.0000,04/10.9257/2021,2000,g 12.5,4.0
# From MPEC 2020-UR0
C/2020 T2 (Palomar),e,27.8728,83.0523,150.3695,322.1670,0.0001704,0.99362186,0.0000,07/11.1243/2021,2000,g 11.0,3.2
# From MPEC 2020-UR0
P/2020 T3 (PANSTARRS),e,7.2955,74.0195,357.0417,3.516498,0.1494647,0.59147361,349.0199,11/08.0/2020,2000,g 18.0,3.2
# From MPEC 2020-UR0
C/2020 T4 (PANSTARRS),e,83.8165,50.6222,79.6050,31040,0.0000002,0.99992938,0.0000,07/05.2589/2021,2000,g 13.0,3.2
# From MPEC 2020-UR0
C/2020 T5 (Lemmon),e,66.6040,237.8615,90.2928,924.6964,0.0000351,0.99795715,0.0000,10/09.6227/2020,2000,g 16.0,4.0
# From MPEC 2020-UR0
P/2020 U2 (PANSTARRS),e,6.4216,342.9046,84.6407,3.777415,0.1342493,0.51052345,353.5962,11/08.0/2020,2000,g 18.0,4.0
# From MPEC 2020-UR0
C/2020 U3 (Rankin),e,30.1768,282.6784,124.2614,64.57981,0.0018991,0.96475396,359.8291,11/08.0/2020,2000,g 15.0,4.0
# From MPEC 2020-UR0
C/2020 U4 (PANSTARRS),h,04/07.6641/2022,167.0374,120.0212,69.5155,1.002715,5.353831,2000,7.0,4.0
# From MPEC 2020-UR0
C/2020 U5 (PANSTARRS),e,97.2641,107.3427,75.3932,1411,0.0000186,0.99733538,0.0000,04/28.4005/2022,2000,g  8.0,4.0
# From  98, 1083
1P/Halley,e,162.2879,58.4257,111.3639,17.87158,0.0130455,0.96616523,165.7510,11/08.0/2020,2000,g  4.0,6.0
# From MPC118097
2P/Encke,e,11.7664,334.5455,186.5708,2.215729,0.2988333,0.84804028,40.3868,11/08.0/2020,2000,g 11.5,6.0
# From MPEC 2015-A10
4P/Faye,e,8.0083,193.0336,206.9065,3.828409,0.1315760,0.57733985,319.8268,11/08.0/2020,2000,g  8.0,6.0
# From MPEC 2015-S97
6P/d'Arrest,e,19.5122,138.9346,178.1002,3.497489,0.1506849,0.61262322,312.7178,11/08.0/2020,2000,g  9.0,4.0
# From MPEC 2015-E14
7P/Pons-Winnecke,e,22.3636,93.3773,172.5832,3.414514,0.1562107,0.63850298,328.7421,11/08.0/2020,2000,g  9.0,4.0
# From MPEC 2020-SI8
8P/Tuttle,e,54.9116,270.2048,207.4908,5.704551,0.0723389,0.82012905,338.8224,11/08.0/2020,2000,g  8.0,8.0
# From MPEC 2019-JE2
9P/Tempel,e,10.4709,68.7297,179.3212,3.147269,0.1765238,0.50940179,274.9393,11/08.0/2020,2000,g  9.0,4.0
# From MPC114607
10P/Tempel,e,12.0398,117.8095,195.5177,3.060791,0.1840576,0.53854005,334.9139,11/08.0/2020,2000,g  5.0,10.0
# From MPEC 2017-L52
11P/Tempel-Swift-LINEAR,e,14.4207,238.9166,167.9462,3.282830,0.1657034,0.57695373,356.9800,11/08.0/2020,2000,g  9.0,4.0
# From  27, 604
12P/Pons-Brooks,e,74.0926,255.7282,199.0296,17.10374,0.0139337,0.95431437,342.4435,11/08.0/2020,2000,g  5.0,6.0
# From  27, 604
13P/Olbers,e,44.6257,85.8681,64.5182,16.68615,0.0144601,0.92971165,340.7471,11/08.0/2020,2000,g  5.0,6.0
# From MPC100283
14P/Wolf,e,27.9052,202.0707,158.9886,4.259070,0.1121326,0.35673046,120.1747,11/08.0/2020,2000,g  5.5,12.0
# From MPC 92276
15P/Finlay,e,6.7976,13.7214,347.8338,3.504633,0.1502243,0.71700159,322.8110,11/08.0/2020,2000,g 12.0,4.0
# From MPC 92276
16P/Brooks,e,3.0116,138.8690,245.1565,3.657746,0.1408911,0.48653998,337.3004,11/08.0/2020,2000,g  7.5,10.0
# From MPEC 2020-SI8
17P/Holmes,e,19.0306,326.6201,24.4744,3.637854,0.1420483,0.42805877,345.2504,11/08.0/2020,2000,g 10.0,6.0
# From MPC 92984
19P/Borrelly,e,29.3526,74.3582,351.8332,3.606557,0.1439013,0.63813427,295.1482,11/08.0/2020,2000,g  4.5,10.0
# From MPC111773
21P/Giacobini-Zinner,e,32.0195,195.3592,172.8493,3.495924,0.1507861,0.71074273,119.0515,11/08.0/2020,2000,g  9.0,6.0
# From MPC 94283
22P/Kopff,e,4.7420,120.8371,162.9722,3.442502,0.1543096,0.54888567,283.6124,11/08.0/2020,2000,g  3.0,10.4
# From MPC 14747
23P/Brorsen-Metcalf,e,19.1327,312.4209,128.8132,16.95342,0.0141195,0.97110757,0.0000,08/09.7583/1989,2000,g 10.0,6.0
# From MPC110085
24P/Schaumasse,e,11.6201,79.1136,57.8857,4.054894,0.1207077,0.70893060,131.2485,11/08.0/2020,2000,g  6.5,14.0
# From MPC 94674
26P/Grigg-Skjellerup,e,22.4409,211.5400,2.1913,3.014003,0.1883599,0.64054435,144.7470,11/08.0/2020,2000,g 12.0,16.0
# From MPC 78188
27P/Crommelin,e,29.1524,250.5864,195.9799,9.188557,0.0353861,0.91804002,120.1380,11/08.0/2020,2000,g 12.0,8.0
# From MPEC 2020-SI8
28P/Neujmin,e,14.3109,346.3368,347.4197,6.978642,0.0534623,0.77385933,353.3759,11/08.0/2020,2000,g  8.5,6.0
# From MPEC 2020-U96
29P/Schwassmann-Wachmann,e,9.3668,312.3751,48.5560,6.035077,0.0664783,0.04429256,39.9269,11/08.0/2020,2000,g  4.0,4.0
# From MPC110085
30P/Reinmuth,e,8.6097,118.9352,11.1327,3.673152,0.1400057,0.53347718,163.5682,11/08.0/2020,2000,g  9.5,6.0
# From MPC108597
31P/Schwassmann-Wachmann,e,4.5473,114.1139,18.2302,4.240429,0.1128728,0.19232686,55.4918,11/08.0/2020,2000,g  5.0,8.0
# From MPC 92276
32P/Comas Sola,e,9.9141,57.2730,53.5854,4.496268,0.1033774,0.55864947,229.2019,11/08.0/2020,2000,g  6.5,8.0
# From MPEC 2013-O31
33P/Daniel,e,22.3164,66.3435,20.6007,4.083534,0.1194400,0.45213156,184.9111,11/08.0/2020,2000,g 10.0,12.0
# From  15, 452
35P/Herschel-Rigollet,e,64.877,356.482,29.036,28.5657,0.006456,0.9736011,0.000,12/25.3218/2091,2000,g  9.0,4.0
# From MPEC 2020-SI8
36P/Whipple,e,9.9520,181.8605,200.7957,4.131506,0.1173658,0.26862315,18.8086,11/08.0/2020,2000,g  8.5,6.0
# From MPEC 2018-HA5
37P/Forbes,e,8.9574,314.5605,330.0972,3.459607,0.1531665,0.53403331,140.7156,11/08.0/2020,2000,g 10.5,4.8
# From MPEC 2018-S50
38P/Stephan-Oterma,e,18.3560,77.9865,359.5313,11.24944,0.0261221,0.85893022,19.0195,11/08.0/2020,2000,g  3.5,12.0
# From MPEC 2020-UR0
39P/Oterma,e,1.5611,299.2525,95.2693,7.401837,0.0489435,0.22406948,315.0299,11/08.0/2020,2000,g  7.0,6.0
# From MPC100283
40P/Vaisala,e,11.4696,133.7805,47.4537,4.951180,0.0894625,0.62983457,195.7042,11/08.0/2020,2000,g  5.5,12.0
# From MPC105240
41P/Tuttle-Giacobini-Kresak,e,9.2209,140.9929,62.2599,3.086385,0.1817728,0.66016811,237.4160,11/08.0/2020,2000,g 10.0,16.0
# From MPC 94283
42P/Neujmin,e,3.9898,150.1860,147.1874,4.872982,0.0916245,0.58543736,186.7132,11/08.0/2020,2000,g 13.0,6.0
# From MPC102956
43P/Wolf-Harrington,e,9.3669,244.3212,224.0942,4.309647,0.1101645,0.43761282,169.1541,11/08.0/2020,2000,g  8.0,6.0
# From MPEC 2020-HN5
44P/Reinmuth,e,5.8984,286.4802,58.1389,3.688586,0.1391279,0.42720911,286.0473,11/08.0/2020,2000,g  8.3,6.0
# From MPC103849
